{
  "type": "FeatureCollection",
  "features": [
    {
      "type": "Feature",
      "properties": {
        "norad_id": 66926,
        "name": "STARLINK-35942",
        "group": "last-30-days",
        "lat": 18.338095389568768,
        "lon": 9.980275916255371,
        "alt_km": 363.6064292589581,
        "timestamp": "2025-12-23T16:57:11.063165+00:00",
        "meta_object_name": "STARLINK-35942",
        "meta_object_id": "2025-286B",
        "meta_epoch": "2025-12-23T06:00:00.999648",
        "meta_mean_motion": 15.69584657,
        "meta_eccentricity": 0.00010265,
        "meta_inclination": 53.1594,
        "meta_ra_of_asc_node": 357.8376,
        "meta_arg_of_pericenter": 94.4999,
        "meta_mean_anomaly": 230.2014,
        "meta_ephemeris_type": 0,
        "meta_classification_type": "U",
        "meta_norad_cat_id": 66926,
        "meta_element_set_no": 999,
        "meta_rev_at_epoch": 368,
        "meta_bstar": -0.018589521,
        "meta_mean_motion_dot": -0.01978491,
        "meta_mean_motion_ddot": 0,
        "tle_line1": "1 66926U 25286B   25357.25001157 -.01978491  00000+0 -18590-1 0  9999",
        "tle_line2": "2 66926  53.1594 357.8376 0001026  94.4999 230.2014 15.69584657  3685"
      },
      "geometry": {
        "type": "Point",
        "coordinates": [
          9.980275916255371,
          18.338095389568768
        ]
      }
    },
    {
      "type": "Feature",
      "properties": {
        "norad_id": 66927,
        "name": "STARLINK-35943",
        "group": "last-30-days",
        "lat": 19.81846793204329,
        "lon": 11.263910969779992,
        "alt_km": 363.3638560356703,
        "timestamp": "2025-12-23T16:57:11.063175+00:00",
        "meta_object_name": "STARLINK-35943",
        "meta_object_id": "2025-286C",
        "meta_epoch": "2025-12-23T06:00:00.999648",
        "meta_mean_motion": 15.69585951,
        "meta_eccentricity": 0.00010937,
        "meta_inclination": 53.159,
        "meta_ra_of_asc_node": 357.8342,
        "meta_arg_of_pericenter": 97.6579,
        "meta_mean_anomaly": 228.9579,
        "meta_ephemeris_type": 0,
        "meta_classification_type": "U",
        "meta_norad_cat_id": 66927,
        "meta_element_set_no": 999,
        "meta_rev_at_epoch": 368,
        "meta_bstar": -0.018606535,
        "meta_mean_motion_dot": -0.01980234,
        "meta_mean_motion_ddot": 0,
        "tle_line1": "1 66927U 25286C   25357.25001157 -.01980234  00000+0 -18607-1 0  9997",
        "tle_line2": "2 66927  53.1590 357.8342 0001093  97.6579 228.9579 15.69585951  3686"
      },
      "geometry": {
        "type": "Point",
        "coordinates": [
          11.263910969779992,
          19.81846793204329
        ]
      }
    },
    {
      "type": "Feature",
      "properties": {
        "norad_id": 66928,
        "name": "STARLINK-35944",
        "group": "last-30-days",
        "lat": 16.84474876907867,
        "lon": 8.715970306154098,
        "alt_km": 363.83046210098564,
        "timestamp": "2025-12-23T16:57:11.063185+00:00",
        "meta_object_name": "STARLINK-35944",
        "meta_object_id": "2025-286D",
        "meta_epoch": "2025-12-23T06:00:00.999648",
        "meta_mean_motion": 15.69586038,
        "meta_eccentricity": 0.00011333,
        "meta_inclination": 53.159,
        "meta_ra_of_asc_node": 357.8418,
        "meta_arg_of_pericenter": 92.7334,
        "meta_mean_anomaly": 230.0487,
        "meta_ephemeris_type": 0,
        "meta_classification_type": "U",
        "meta_norad_cat_id": 66928,
        "meta_element_set_no": 999,
        "meta_rev_at_epoch": 368,
        "meta_bstar": -0.018610088,
        "meta_mean_motion_dot": -0.01980604,
        "meta_mean_motion_ddot": 0,
        "tle_line1": "1 66928U 25286D   25357.25001157 -.01980604  00000+0 -18610-1 0  9993",
        "tle_line2": "2 66928  53.1590 357.8418 0001133  92.7334 230.0487 15.69586038  3680"
      },
      "geometry": {
        "type": "Point",
        "coordinates": [
          8.715970306154098,
          16.84474876907867
        ]
      }
    },
    {
      "type": "Feature",
      "properties": {
        "norad_id": 66929,
        "name": "STARLINK-36169",
        "group": "last-30-days",
        "lat": 21.293670927800395,
        "lon": 12.57348923467646,
        "alt_km": 363.03624672284786,
        "timestamp": "2025-12-23T16:57:11.063195+00:00",
        "meta_object_name": "STARLINK-36169",
        "meta_object_id": "2025-286E",
        "meta_epoch": "2025-12-23T06:00:00.999648",
        "meta_mean_motion": 15.69582173,
        "meta_eccentricity": 0.00010496,
        "meta_inclination": 53.1595,
        "meta_ra_of_asc_node": 357.8293,
        "meta_arg_of_pericenter": 90.3689,
        "meta_mean_anomaly": 238.1653,
        "meta_ephemeris_type": 0,
        "meta_classification_type": "U",
        "meta_norad_cat_id": 66929,
        "meta_element_set_no": 999,
        "meta_rev_at_epoch": 368,
        "meta_bstar": -0.0185361,
        "meta_mean_motion_dot": -0.01973312,
        "meta_mean_motion_ddot": 0,
        "tle_line1": "1 66929U 25286E   25357.25001157 -.01973312  00000+0 -18536-1 0  9999",
        "tle_line2": "2 66929  53.1595 357.8293 0001049  90.3689 238.1653 15.69582173  3680"
      },
      "geometry": {
        "type": "Point",
        "coordinates": [
          12.57348923467646,
          21.293670927800395
        ]
      }
    },
    {
      "type": "Feature",
      "properties": {
        "norad_id": 66930,
        "name": "STARLINK-36206",
        "group": "last-30-days",
        "lat": 22.757007955305948,
        "lon": 13.91030558314802,
        "alt_km": 362.8069297882421,
        "timestamp": "2025-12-23T16:57:11.063205+00:00",
        "meta_object_name": "STARLINK-36206",
        "meta_object_id": "2025-286F",
        "meta_epoch": "2025-12-23T06:00:00.999648",
        "meta_mean_motion": 15.69584883,
        "meta_eccentricity": 9.907e-05,
        "meta_inclination": 53.1591,
        "meta_ra_of_asc_node": 357.8259,
        "meta_arg_of_pericenter": 80.699,
        "meta_mean_anomaly": 249.7527,
        "meta_ephemeris_type": 0,
        "meta_classification_type": "U",
        "meta_norad_cat_id": 66930,
        "meta_element_set_no": 999,
        "meta_rev_at_epoch": 368,
        "meta_bstar": -0.018590388,
        "meta_mean_motion_dot": -0.01978563,
        "meta_mean_motion_ddot": 0,
        "tle_line1": "1 66930U 25286F   25357.25001157 -.01978563  00000+0 -18590-1 0  9994",
        "tle_line2": "2 66930  53.1591 357.8259 0000990  80.6990 249.7527 15.69584883  3689"
      },
      "geometry": {
        "type": "Point",
        "coordinates": [
          13.91030558314802,
          22.757007955305948
        ]
      }
    },
    {
      "type": "Feature",
      "properties": {
        "norad_id": 66931,
        "name": "STARLINK-36130",
        "group": "last-30-days",
        "lat": 24.207322815426824,
        "lon": 15.273533552500927,
        "alt_km": 362.51304491567316,
        "timestamp": "2025-12-23T16:57:11.063217+00:00",
        "meta_object_name": "STARLINK-36130",
        "meta_object_id": "2025-286G",
        "meta_epoch": "2025-12-23T06:00:00.999648",
        "meta_mean_motion": 15.69583378,
        "meta_eccentricity": 0.00010779,
        "meta_inclination": 53.159,
        "meta_ra_of_asc_node": 357.8217,
        "meta_arg_of_pericenter": 90.2588,
        "meta_mean_anomaly": 242.1087,
        "meta_ephemeris_type": 0,
        "meta_classification_type": "U",
        "meta_norad_cat_id": 66931,
        "meta_element_set_no": 999,
        "meta_rev_at_epoch": 368,
        "meta_bstar": -0.01855964,
        "meta_mean_motion_dot": -0.01975633,
        "meta_mean_motion_ddot": 0,
        "tle_line1": "1 66931U 25286G   25357.25001157 -.01975633  00000+0 -18560-1 0  9997",
        "tle_line2": "2 66931  53.1590 357.8217 0001077  90.2588 242.1087 15.69583378  3686"
      },
      "geometry": {
        "type": "Point",
        "coordinates": [
          15.273533552500927,
          24.207322815426824
        ]
      }
    },
    {
      "type": "Feature",
      "properties": {
        "norad_id": 66932,
        "name": "STARLINK-36177",
        "group": "last-30-days",
        "lat": 25.643831070940372,
        "lon": 16.666636608002182,
        "alt_km": 362.2074679227517,
        "timestamp": "2025-12-23T16:57:11.063228+00:00",
        "meta_object_name": "STARLINK-36177",
        "meta_object_id": "2025-286H",
        "meta_epoch": "2025-12-23T06:00:00.999648",
        "meta_mean_motion": 15.69570361,
        "meta_eccentricity": 0.00012535,
        "meta_inclination": 53.1589,
        "meta_ra_of_asc_node": 357.8173,
        "meta_arg_of_pericenter": 90.584,
        "meta_mean_anomaly": 243.7118,
        "meta_ephemeris_type": 0,
        "meta_classification_type": "U",
        "meta_norad_cat_id": 66932,
        "meta_element_set_no": 999,
        "meta_rev_at_epoch": 368,
        "meta_bstar": -0.018472343,
        "meta_mean_motion_dot": -0.01966619,
        "meta_mean_motion_ddot": 0,
        "tle_line1": "1 66932U 25286H   25357.25001157 -.01966619  00000+0 -18472-1 0  9994",
        "tle_line2": "2 66932  53.1589 357.8173 0001253  90.5840 243.7118 15.69570361  3686"
      },
      "geometry": {
        "type": "Point",
        "coordinates": [
          16.666636608002182,
          25.643831070940372
        ]
      }
    }
  ]
}